{
 "type": "FeatureCollection",
 "name": "CHAF_Navidad",
 "attribution": "CHAF v1: Melnick, Maldonado & Contreras (2020), PANGAEA doi:10.1594/PANGAEA.922241, CC-BY 4.0",
 "features": [
  {
   "type": "Feature",
   "properties": {
    "F_id": "300501",
    "F_system": "CFTF",
    "F_name": "Pichilemu",
    "FT_name": "Principal",
    "type": "inferred",
    "strike": "138",
    "dip": "55",
    "dipdir": "SW",
    "sense": "Normal",
    "length_km": "27.153",
    "max_z_km": "33",
    "width_km": "35,4",
    "activity": "Proved",
    "recent_act": "aftershock seismicity following the 2010 M7 earthquake",
    "ass_seism": "Associated with Mw 6.9 earthquake in 2010",
    "refs": "Aron et al. (2014); Ruiz et al. (2014); Aron et al. (2013); Ryder et al. (2012); Farias et al. (2011)"
   },
   "geometry": {
    "type": "LineString",
    "coordinates": [
     [
      -72.05485958644924,
      -34.2985937622738
     ],
     [
      -71.9977371397458,
      -34.35872243153824
     ],
     [
      -71.93889750313048,
      -34.42639549960469
     ],
     [
      -71.90835479099432,
      -34.46053147199219
     ],
     [
      -71.87721320214958,
      -34.49406856767116
     ]
    ]
   }
  },
  {
   "type": "Feature",
   "properties": {
    "F_id": "300601",
    "F_system": "CFTF",
    "F_name": "Topocalma",
    "FT_name": "",
    "type": "observed",
    "strike": "172",
    "dip": "",
    "dipdir": "",
    "sense": "",
    "length_km": "5.331",
    "max_z_km": "",
    "width_km": "",
    "activity": "Probable",
    "recent_act": "",
    "ass_seism": "",
    "refs": "Jara-Munoz et al. (2015)"
   },
   "geometry": {
    "type": "LineString",
    "coordinates": [
     [
      -71.95262374857083,
      -34.11647922216833
     ],
     [
      -71.95030627132157,
      -34.1252856357155
     ],
     [
      -71.94949515428432,
      -34.12945709476418
     ],
     [
      -71.94897372190326,
      -34.1383793821738
     ],
     [
      -71.94885784804079,
      -34.14336195825968
     ],
     [
      -71.94862610031585,
      -34.15106757011348
     ],
     [
      -71.94856816338465,
      -34.15211043487562
     ],
     [
      -71.94804673100354,
      -34.15581839847442
     ],
     [
      -71.94787292020985,
      -34.15738269561768
     ],
     [
      -71.94752529862245,
      -34.15883111889846
     ],
     [
      -71.94596100147922,
      -34.16288670408466
     ],
     [
      -71.94567131682308,
      -34.1635240103282
     ]
    ]
   }
  },
  {
   "type": "Feature",
   "properties": {
    "F_id": "300602",
    "F_system": "CFTF",
    "F_name": "Topocalma",
    "FT_name": "",
    "type": "observed",
    "strike": "8",
    "dip": "",
    "dipdir": "E",
    "sense": "Reverse",
    "length_km": "5.218",
    "max_z_km": "",
    "width_km": "",
    "activity": "Probable",
    "recent_act": "",
    "ass_seism": "",
    "refs": "Jara-Munoz et al. (2015)"
   },
   "geometry": {
    "type": "LineString",
    "coordinates": [
     [
      -72.00714240085951,
      -34.15865730810474
     ],
     [
      -72.0032026895358,
      -34.13733651741163
     ],
     [
      -72.00158045546132,
      -34.12644437434013
     ],
     [
      -72.00111696001147,
      -34.12065068121699
     ],
     [
      -72.00065346456162,
      -34.11578397899356
     ],
     [
      -72.00053759069917,
      -34.11230776311968
     ]
    ]
   }
  },
  {
   "type": "Feature",
   "properties": {
    "F_id": "300403",
    "F_system": "CFTF",
    "F_name": "Topocalma",
    "FT_name": "",
    "type": "inferred",
    "strike": "143",
    "dip": "",
    "dipdir": "",
    "sense": "",
    "length_km": "11.119",
    "max_z_km": "",
    "width_km": "",
    "activity": "Probable",
    "recent_act": "",
    "ass_seism": "",
    "refs": "Aron et al. (2014)"
   },
   "geometry": {
    "type": "LineString",
    "coordinates": [
     [
      -71.78860429625497,
      -34.24460674558637
     ],
     [
      -71.72811814004952,
      -34.32409621523566
     ]
    ]
   }
  },
  {
   "type": "Feature",
   "properties": {
    "F_id": "300502",
    "F_system": "CFTF",
    "F_name": "Pichilemu",
    "FT_name": "",
    "type": "blind",
    "strike": "162",
    "dip": "74",
    "dipdir": "SW",
    "sense": "Normal-Dextral",
    "length_km": "15.06",
    "max_z_km": "",
    "width_km": "",
    "activity": "Proved",
    "recent_act": "",
    "ass_seism": "Associated with Mw 6.9 earthquake in 2010",
    "refs": "Aron et al. (2014); Ruiz et al. (2014); Aron et al. (2013); Ryder et al. (2012); Farias et al. (2011)"
   },
   "geometry": {
    "type": "LineString",
    "coordinates": [
     [
      -72.03896386719539,
      -34.36868533248094
     ],
     [
      -72.02902844776762,
      -34.3957030682914
     ],
     [
      -72.01176562680371,
      -34.45479725273527
     ],
     [
      -71.99658257392835,
      -34.49979093381717
     ]
    ]
   }
  },
  {
   "type": "Feature",
   "properties": {
    "F_id": "300702",
    "F_system": "CFTF",
    "F_name": "Puertecillo",
    "FT_name": "",
    "type": "observed",
    "strike": "179",
    "dip": "",
    "dipdir": "W",
    "sense": "Normal",
    "length_km": "13.631",
    "max_z_km": "",
    "width_km": "",
    "activity": "Probable",
    "recent_act": "",
    "ass_seism": "",
    "refs": "Jara-Munoz et al. (2015)"
   },
   "geometry": {
    "type": "LineString",
    "coordinates": [
     [
      -71.94202129015551,
      -33.99324736943927
     ],
     [
      -71.94210819555232,
      -34.04521679675381
     ],
     [
      -71.94164470010249,
      -34.05773117389976
     ],
     [
      -71.94118120465262,
      -34.06561059654723
     ],
     [
      -71.94118120465262,
      -34.07163603739528
     ],
     [
      -71.9418764478274,
      -34.07766147824336
     ],
     [
      -71.9418764478274,
      -34.08762663041514
     ],
     [
      -71.94071770920277,
      -34.10245848481036
     ],
     [
      -71.93912444359394,
      -34.1154942943374
     ]
    ]
   }
  },
  {
   "type": "Feature",
   "properties": {
    "F_id": "300402",
    "F_system": "CFTF",
    "F_name": "Topocalma",
    "FT_name": "",
    "type": "observed",
    "strike": "133",
    "dip": "",
    "dipdir": "NE",
    "sense": "Normal",
    "length_km": "12.834",
    "max_z_km": "",
    "width_km": "",
    "activity": "Probable",
    "recent_act": "",
    "ass_seism": "",
    "refs": "Jara-Munoz et al. (2015)"
   },
   "geometry": {
    "type": "LineString",
    "coordinates": [
     [
      -71.84080547129433,
      -34.2418837098185
     ],
     [
      -71.84636741669256,
      -34.23493127807075
     ],
     [
      -71.86270563129978,
      -34.21673908166412
     ],
     [
      -71.87238109881535,
      -34.20845410049811
     ],
     [
      -71.88002877373789,
      -34.20242865965006
     ],
     [
      -71.88553278220486,
      -34.19675084038941
     ],
     [
      -71.89010979977213,
      -34.19321668758428
     ],
     [
      -71.89329633098986,
      -34.19055158874764
     ],
     [
      -71.89758366390097,
      -34.1860325081116
     ],
     [
      -71.90221861839949,
      -34.18296185075634
     ],
     [
      -71.9120678967088,
      -34.1753141758338
     ],
     [
      -71.91455918475174,
      -34.17299669858453
     ],
     [
      -71.91687666200103,
      -34.17021572588545
     ],
     [
      -71.91867270686917,
      -34.1677823747737
     ],
     [
      -71.92046875173735,
      -34.16598632990553
     ],
     [
      -71.92411877840493,
      -34.16291567255031
     ]
    ]
   }
  },
  {
   "type": "Feature",
   "properties": {
    "F_id": "300401",
    "F_system": "CFTF",
    "F_name": "Topocalma*",
    "FT_name": "",
    "type": "inferred",
    "strike": "132",
    "dip": "56",
    "dipdir": "NE",
    "sense": "Normal",
    "length_km": "16.323",
    "max_z_km": "",
    "width_km": "",
    "activity": "Probable",
    "recent_act": "",
    "ass_seism": "",
    "refs": "Aron et al. (2014); Aron et al. (2015)"
   },
   "geometry": {
    "type": "LineString",
    "coordinates": [
     [
      -71.73088847317584,
      -34.33720278486771
     ],
     [
      -71.73880422319789,
      -34.3330840206286
     ],
     [
      -71.75082941709218,
      -34.32710893565972
     ],
     [
      -71.76241680333845,
      -34.31899776528731
     ],
     [
      -71.77979788270783,
      -34.30416591089212
     ],
     [
      -71.7971789620772,
      -34.28771182242244
     ],
     [
      -71.80853460059853,
      -34.27566094072633
     ],
     [
      -71.82916014811687,
      -34.25387665458339
     ],
     [
      -71.84080547129433,
      -34.2418837098185
     ]
    ]
   }
  },
  {
   "type": "Feature",
   "properties": {
    "F_id": "300404",
    "F_system": "CFTF",
    "F_name": "Topocalma",
    "FT_name": "",
    "type": "inferred",
    "strike": "124",
    "dip": "",
    "dipdir": "NE",
    "sense": "Normal",
    "length_km": "13.718",
    "max_z_km": "",
    "width_km": "",
    "activity": "Probable",
    "recent_act": "",
    "ass_seism": "",
    "refs": "Aron et al. (2014)"
   },
   "geometry": {
    "type": "LineString",
    "coordinates": [
     [
      -71.61282364689899,
      -34.41866377123815
     ],
     [
      -71.6401698784402,
      -34.39780647599485
     ],
     [
      -71.71479264586615,
      -34.34960294921041
     ]
    ]
   }
  },
  {
   "type": "Feature",
   "properties": {
    "F_id": "391801",
    "F_system": "WATF",
    "F_name": "",
    "FT_name": "",
    "type": "inferred",
    "strike": "27",
    "dip": "",
    "dipdir": "E",
    "sense": "Reverse",
    "length_km": "6.177",
    "max_z_km": "",
    "width_km": "",
    "activity": "Possible",
    "recent_act": "",
    "ass_seism": "",
    "refs": ""
   },
   "geometry": {
    "type": "LineString",
    "coordinates": [
     [
      -71.21748070176433,
      -35.27085433700297
     ],
     [
      -71.21271143595817,
      -35.26273045388763
     ],
     [
      -71.2068884066083,
      -35.25269698827346
     ],
     [
      -71.20282410271845,
      -35.24584578527782
     ],
     [
      -71.19929488968737,
      -35.23979309931389
     ],
     [
      -71.19757425194712,
      -35.23582993600318
     ],
     [
      -71.19455049567814,
      -35.2271348846991
     ],
     [
      -71.19233253700293,
      -35.22159238525413
     ]
    ]
   }
  },
  {
   "type": "Feature",
   "properties": {
    "F_id": "391601",
    "F_system": "WATF",
    "F_name": "",
    "FT_name": "",
    "type": "inferred",
    "strike": "27",
    "dip": "",
    "dipdir": "E",
    "sense": "Reverse",
    "length_km": "26.36",
    "max_z_km": "",
    "width_km": "",
    "activity": "Possible",
    "recent_act": "",
    "ass_seism": "",
    "refs": ""
   },
   "geometry": {
    "type": "LineString",
    "coordinates": [
     [
      -70.92196168932833,
      -34.62222597334375
     ],
     [
      -70.9119333427633,
      -34.58778798960066
     ],
     [
      -70.90833090821111,
      -34.57526641839741
     ],
     [
      -70.90244809106555,
      -34.56150556065046
     ],
     [
      -70.89200556674136,
      -34.54526578523977
     ],
     [
      -70.8815859561811,
      -34.52863849857317
     ],
     [
      -70.87341151669513,
      -34.51402402343365
     ],
     [
      -70.85381939918862,
      -34.48429599712099
     ],
     [
      -70.84733001660757,
      -34.47361243535619
     ],
     [
      -70.84169945407518,
      -34.46450789739492
     ],
     [
      -70.83698485240465,
      -34.4558218985721
     ],
     [
      -70.83277661892467,
      -34.44637801633252
     ],
     [
      -70.82734186108455,
      -34.43340450569951
     ],
     [
      -70.8201763180131,
      -34.41765899802698
     ],
     [
      -70.81673136824043,
      -34.411728384512
     ]
    ]
   }
  },
  {
   "type": "Feature",
   "properties": {
    "F_id": "390301",
    "F_system": "CFTF",
    "F_name": "El Quisco",
    "FT_name": "",
    "type": "inferred",
    "strike": "119",
    "dip": "",
    "dipdir": "",
    "sense": "",
    "length_km": "48.599",
    "max_z_km": "",
    "width_km": "",
    "activity": "Possible",
    "recent_act": "",
    "ass_seism": "",
    "refs": ""
   },
   "geometry": {
    "type": "LineString",
    "coordinates": [
     [
      -71.69419971979497,
      -33.39269622173374
     ],
     [
      -71.69379591960754,
      -33.39303475943903
     ],
     [
      -71.69338636222541,
      -33.393366309013
     ],
     [
      -71.69297116856954,
      -33.39369077256629
     ],
     [
      -71.69255046122512,
      -33.39400805430165
     ],
     [
      -71.69212436440515,
      -33.39431806054233
     ],
     [
      -71.69169300391381,
      -33.39462069975954
     ],
     [
      -71.69125650710951,
      -33.39491588259967
     ],
     [
      -71.69081500286707,
      -33.39520352191056
     ],
     [
      -71.69036862153972,
      -33.39548353276724
     ],
     [
      -71.6899174949207,
      -33.39575583249708
     ],
     [
      -71.68946175620425,
      -33.39602034070412
     ],
     [
      -71.68900153994636,
      -33.39627697929284
     ],
     [
      -71.6885369820249,
      -33.39652567249117
     ],
     [
      -71.68806821959977,
      -33.39676634687296
     ],
     [
      -71.68759539107212,
      -33.39699893137956
     ],
     [
      -71.68711863604366,
      -33.39722335734083
     ],
     [
      -71.68663809527537,
      -33.39743955849548
     ],
     [
      -71.68615391064593,
      -33.39764747101052
     ],
     [
      -71.68566622510998,
      -33.39784703350016
     ],
     [
      -71.68517518265568,
      -33.39803818704406
     ],
     [
      -71.68468092826235,
      -33.3982208752044
     ],
     [
      -71.68262938359149,
      -33.39899946459084
     ],
     [
      -71.68034122008856,
      -33.4002946514793
     ],
     [
      -71.67783719210422,
      -33.40189204864171
     ],
     [
      -71.67632614073437,
      -33.40305771684131
     ],
     [
      -71.67351990247607,
      -33.40586395509962
     ],
     [
      -71.67213836979505,
      -33.4071159690918
     ],
     [
      -71.67092952869918,
      -33.4080225999137
     ],
     [
      -71.66928895864046,
      -33.40905874942445
     ],
     [
      -71.66536022507883,
      -33.41091518396456
     ],
     [
      -71.66164735599862,
      -33.41212402506044
     ],
     [
      -71.65901380932546,
      -33.41324652036377
     ],
     [
      -71.65732619686985,
      -33.41422521307899
     ],
     [
      -71.6568044118459,
      -33.41446171294371
     ],
     [
      -71.65628662620294,
      -33.41470684520431
     ],
     [
      -71.65577298274312,
      -33.41496054225479
     ],
     [
      -71.65526362312617,
      -33.41522273412705
     ],
     [
      -71.65475868783041,
      -33.41549334851009
     ],
     [
      -71.65425831611391,
      -33.41577231077022
     ],
     [
      -71.65376264597616,
      -33.41605954397124
     ],
     [
      -71.65327181411998,
      -33.41635496889607
     ],
     [
      -71.65220345310328,
      -33.41714151318939
     ],
     [
      -71.65112171126545,
      -33.41790955080798
     ],
     [
      -71.65002690915198,
      -33.41865885416427
     ],
     [
      -71.64891937117855,
      -33.419389201222
     ],
     [
      -71.64779942553466,
      -33.42010037556218
     ],
     [
      -71.6466674040866,
      -33.42079216644709
     ],
     [
      -71.64552364227892,
      -33.42146436888289
     ],
     [
      -71.64436847903518,
      -33.42211678368012
     ],
     [
      -71.64320225665736,
      -33.42274921751292
     ],
     [
      -71.64202532072467,
      -33.42336148297631
     ],
     [
      -71.64083801999087,
      -33.42395339864163
     ],
     [
      -71.63994978752794,
      -33.42435761879406
     ],
     [
      -71.63906818065308,
      -33.42477609239899
     ],
     [
      -71.6381934280732,
      -33.42520871089575
     ],
     [
      -71.63732575671699,
      -33.42565536205434
     ],
     [
      -71.63646539167621,
      -33.42611593000419
     ],
     [
      -71.6356125561472,
      -33.42659029526457
     ],
     [
      -71.63476747137295,
      -33.42707833477541
     ],
     [
      -71.6339303565858,
      -33.4275799219293
     ],
     [
      -71.63377589330547,
      -33.42761281662633
     ],
     [
      -71.63362202573256,
      -33.42764839381105
     ],
     [
      -71.63346880044884,
      -33.42768664271289
     ],
     [
      -71.63331626384158,
      -33.42772755175238
     ],
     [
      -71.63316446208962,
      -33.42777110854478
     ],
     [
      -71.63301344114927,
      -33.42781729990372
     ],
     [
      -71.6328632467405,
      -33.42786611184528
     ],
     [
      -71.63271392433302,
      -33.42791752959213
     ],
     [
      -71.63256551913264,
      -33.42797153757815
     ],
     [
      -71.63241807606731,
      -33.42802811945302
     ],
     [
      -71.63227163977395,
      -33.42808725808712
     ],
     [
      -71.63212625458449,
      -33.42814893557692
     ],
     [
      -71.63198196451273,
      -33.42821313325024
     ],
     [
      -71.63183881324095,
      -33.42827983167189
     ],
     [
      -71.63169684410664,
      -33.42834901064967
     ],
     [
      -71.63155610008943,
      -33.42842064924039
     ],
     [
      -71.631416623798,
      -33.42849472575623
     ],
     [
      -71.63127845745734,
      -33.42857121777131
     ],
     [
      -71.63114164289581,
      -33.42865010212854
     ],
     [
      -71.63100622153252,
      -33.42873135494654
     ],
     [
      -71.63087223436483,
      -33.42881495162683
     ],
     [
      -71.6307397219559,
      -33.42890086686148
     ],
     [
      -71.63060872442244,
      -33.42898907464058
     ],
     [
      -71.63047928142255,
      -33.42907954826016
     ],
     [
      -71.63035143214364,
      -33.4291722603303
     ],
     [
      -71.63022521529075,
      -33.42926718278343
     ],
     [
      -71.63010066907468,
      -33.42936428688284
     ],
     [
      -71.62997783120038,
      -33.42946354323126
     ],
     [
      -71.62985673885574,
      -33.42956492177995
     ],
     [
      -71.62973742870015,
      -33.42966839183765
     ],
     [
      -71.62961993685346,
      -33.42977392207987
     ],
     [
      -71.62950429888507,
      -33.42988148055852
     ],
     [
      -71.62939054980309,
      -33.42999103471141
     ],
     [
      -71.62927872404387,
      -33.43010255137222
     ],
     [
      -71.62916885546143,
      -33.43021599678048
     ],
     [
      -71.62906097731728,
      -33.43033133659183
     ],
     [
      -71.62895512227038,
      -33.43044853588835
     ],
     [
      -71.62885132236718,
      -33.43056755918929
     ],
     [
      -71.62874960903198,
      -33.43068837046155
     ],
     [
      -71.62858569157979,
      -33.43077484887215
     ],
     [
      -71.62842330685005,
      -33.43086417214003
     ],
     [
      -71.62826250421165,
      -33.4309563131088
     ],
     [
      -71.62810333255251,
      -33.43105124376536
     ],
     [
      -71.6279458402646,
      -33.43114893524857
     ],
     [
      -71.6277900752294,
      -33.43124935785777
     ],
     [
      -71.62763608480321,
      -33.43135248106216
     ],
     [
      -71.62748391580284,
      -33.43145827350973
     ],
     [
      -71.62733361449138,
      -33.43156670303705
     ],
     [
      -71.62718522656394,
      -33.43167773667895
     ],
     [
      -71.6270387971341,
      -33.43179134067849
     ],
     [
      -71.62689437071995,
      -33.43190748049739
     ],
     [
      -71.62675199123056,
      -33.43202612082626
     ],
     [
      -71.62661170195274,
      -33.43214722559565
     ],
     [
      -71.62647354553782,
      -33.43227075798674
     ],
     [
      -71.62633756398863,
      -33.43239668044271
     ],
     [
      -71.62620379864688,
      -33.43252495468016
     ],
     [
      -71.62607229018049,
      -33.43265554170058
     ],
     [
      -71.62594307857114,
      -33.43278840180232
     ],
     [
      -71.62581620310232,
      -33.43292349459283
     ],
     [
      -71.62569170234717,
      -33.43306077900059
     ],
     [
      -71.62556961415697,
      -33.43320021328777
     ],
     [
      -71.62544997564947,
      -33.43334175506309
     ],
     [
      -71.62533282319762,
      -33.43348536129438
     ],
     [
      -71.62521819241864,
      -33.43363098832187
     ],
     [
      -71.62510611816299,
      -33.43377859187149
     ],
     [
      -71.62499663450399,
      -33.43392812706819
     ],
     [
      -71.6248897747273,
      -33.43407954844964
     ],
     [
      -71.62478557132086,
      -33.43423280998012
     ],
     [
      -71.624684055965,
      -33.43438786506442
     ],
     [
      -71.62458525952289,
      -33.43454466656204
     ],
     [
      -71.62448921203097,
      -33.43470316680158
     ],
     [
      -71.62439594269001,
      -33.4348633175951
     ],
     [
      -71.62430547985615,
      -33.43502507025297
     ],
     [
      -71.62421785103226,
      -33.43518837559844
     ],
     [
      -71.62413308285959,
      -33.43535318398278
     ],
     [
      -71.62405120110976,
      -33.43551944530021
     ],
     [
      -71.62397223067676,
      -33.43568710900335
     ],
     [
      -71.6238961955695,
      -33.43585612411835
     ],
     [
      -71.62382311890451,
      -33.43602643926056
     ],
     [
      -71.62375302289885,
      -33.43619800265009
     ],
     [
      -71.62368592886337,
      -33.43637076212752
     ],
     [
      -71.62362185719628,
      -33.43654466516981
     ],
     [
      -71.62356082737693,
      -33.43671965890621
     ],
     [
      -71.62350285795985,
      -33.43689569013446
     ],
     [
      -71.62344796656913,
      -33.43707270533682
     ],
     [
      -71.62339616989308,
      -33.43725065069636
     ],
     [
      -71.62243073570512,
      -33.43855225901817
     ],
     [
      -71.6214435853432,
      -33.4398374755593
     ],
     [
      -71.62043499706377,
      -33.44110593804485
     ],
     [
      -71.61940525516619,
      -33.44235728892249
     ],
     [
      -71.61835464991256,
      -33.44359117546333
     ],
     [
      -71.6172834774459,
      -33.44480724986127
     ],
     [
      -71.61619203970672,
      -33.44600516933111
     ],
     [
      -71.61508064434788,
      -33.44718459620503
     ],
     [
      -71.61394960464783,
      -33.448345198028
     ],
     [
      -71.6127992394223,
      -33.44948664765133
     ],
     [
      -71.61162987293456,
      -33.45060862332485
     ],
     [
      -71.61044183480391,
      -33.45171080878779
     ],
     [
      -71.60923545991271,
      -33.45279289335776
     ],
     [
      -71.60902148397457,
      -33.45313272043467
     ],
     [
      -71.60880169872497,
      -33.45346881950984
     ],
     [
      -71.60857616909867,
      -33.45380109128408
     ],
     [
      -71.60834496172758,
      -33.45412943758885
     ],
     [
      -71.60810814492112,
      -33.45445376141538
     ],
     [
      -71.60786578864591,
      -33.45477396694337
     ],
     [
      -71.60761796450528,
      -33.45508995956926
     ],
     [
      -71.607364745718,
      -33.45540164593416
     ],
     [
      -71.60710620709665,
      -33.45570893395143
     ],
     [
      -71.6068424250255,
      -33.45601173283394
     ],
     [
      -71.60657347743808,
      -33.4563099531208
     ],
     [
      -71.60629944379396,
      -33.45660350670394
     ],
     [
      -71.60602040505539,
      -33.456892306854
     ],
     [
      -71.60573644366339,
      -33.457176268246
     ],
     [
      -71.60544764351333,
      -33.45745530698457
     ],
     [
      -71.6051540899302,
      -33.45772934062871
     ],
     [
      -71.6048558696433,
      -33.45799828821611
     ],
     [
      -71.6045530707608,
      -33.45826207028725
     ],
     [
      -71.60424578274352,
      -33.45852060890861
     ],
     [
      -71.60393409637865,
      -33.45877382769589
     ],
     [
      -71.60361810375274,
      -33.45902165183652
     ],
     [
      -71.60329789822475,
      -33.45926400811172
     ],
     [
      -71.60297357439822,
      -33.45950082491819
     ],
     [
      -71.60264522809346,
      -33.45973203228928
     ],
     [
      -71.60231295631924,
      -33.45995756191559
     ],
     [
      -71.60197685724404,
      -33.46017734716519
     ],
     [
      -71.60163703016714,
      -33.46039132310332
     ],
     [
      -71.60130477140815,
      -33.4607454049972
     ],
     [
      -71.60096654653948,
      -33.4610937924377
     ],
     [
      -71.6006224531414,
      -33.46143638491265
     ],
     [
      -71.60027259048725,
      -33.46177308358165
     ],
     [
      -71.59991705951484,
      -33.46210379130482
     ],
     [
      -71.5995559627974,
      -33.46242841267065
     ],
     [
      -71.59918940451385,
      -33.46274685402358
     ],
     [
      -71.59881749041882,
      -33.46305902349103
     ],
     [
      -71.59844032781216,
      -33.46336483100996
     ],
     [
      -71.59805802550791,
      -33.46366418835272
     ],
     [
      -71.59767069380298,
      -33.4639570091526
     ],
     [
      -71.59727844444531,
      -33.4642432089288
     ],
     [
      -71.59688139060154,
      -33.4645227051106
     ],
     [
      -71.59647964682453,
      -33.46479541706146
     ],
     [
      -71.59607332902019,
      -33.465061266102
     ],
     [
      -71.59566255441405,
      -33.46532017553296
     ],
     [
      -71.59524744151746,
      -33.46557207065712
     ],
     [
      -71.59513359657305,
      -33.46573647006864
     ],
     [
      -71.59501692404403,
      -33.46589887499109
     ],
     [
      -71.59489745886465,
      -33.46605923679699
     ],
     [
      -71.59477523680538,
      -33.46621750747051
     ],
     [
      -71.59465029446213,
      -33.46637363962202
     ],
     [
      -71.59452266924531,
      -33.46652758650217
     ],
     [
      -71.5943923993687,
      -33.46667930201593
     ],
     [
      -71.5942595238379,
      -33.46682874073645
     ],
     [
      -71.59412408243873,
      -33.46697585791849
     ],
     [
      -71.59398611572522,
      -33.46712060951204
     ],
     [
      -71.59384566500762,
      -33.46726295217536
     ],
     [
      -71.59370277233988,
      -33.46740284328795
     ],
     [
      -71.59355748050717,
      -33.46754024096339
     ],
     [
      -71.59340983301298,
      -33.46767510406188
     ],
     [
      -71.59325987406618,
      -33.46780739220248
     ],
     [
      -71.59310764856768,
      -33.46793706577526
     ],
     [
      -71.5929532020971,
      -33.46806408595319
     ],
     [
      -71.59279658089905,
      -33.46818841470367
     ],
     [
      -71.5926378318693,
      -33.46831001479996
     ],
     [
      -71.59247700254069,
      -33.46842884983238
     ],
     [
      -71.59231414106902,
      -33.46854488421918
     ],
     [
      -71.59214929621855,
      -33.46865808321717
     ],
     [
      -71.59198251734736,
      -33.46876841293209
     ],
     [
      -71.59181385439265,
      -33.46887584032887
     ],
     [
      -71.59164335785576,
      -33.4689803332414
     ],
     [
      -71.59147107878698,
      -33.46908186038231
     ],
     [
      -71.59129706877043,
      -33.46918039135213
     ],
     [
      -71.59112137990847,
      -33.46927589664855
     ],
     [
      -71.59094406480608,
      -33.46936834767528
     ],
     [
      -71.59076517655528,
      -33.46945771675044
     ],
     [
      -71.59058476871904,
      -33.46954397711503
     ],
     [
      -71.58905382596319,
      -33.47031816047951
     ],
     [
      -71.58751085674544,
      -33.47106808820714
     ],
     [
      -71.5859562453325,
      -33.47179357353318
     ],
     [
      -71.58439037889045,
      -33.47249443578013
     ],
     [
      -71.58281364738835,
      -33.47317050040268
     ],
     [
      -71.57760391874396,
      -33.47548179710395
     ],
     [
      -71.57236532705956,
      -33.47772690782583
     ],
     [
      -71.56709871314183,
      -33.4799054722226
     ],
     [
      -71.56577826310922,
      -33.48052219894535
     ],
     [
      -71.56444758054454,
      -33.48111652549799
     ],
     [
      -71.56310704541241,
      -33.48168828217581
     ],
     [
      -71.56175704049078,
      -33.48223730571878
     ],
     [
      -71.56039795126165,
      -33.48276343935805
     ],
     [
      -71.55903016580093,
      -33.48326653286085
     ],
     [
      -71.55765407466765,
      -33.48374644257324
     ],
     [
      -71.55627007079251,
      -33.48420303146128
     ],
     [
      -71.55487854936551,
      -33.48463616915001
     ],
     [
      -71.5534799077234,
      -33.48504573196084
     ],
     [
      -71.55207454523583,
      -33.48543160294668
     ],
     [
      -71.55037095440423,
      -33.48600292159739
     ],
     [
      -71.548658935737,
      -33.48654846610076
     ],
     [
      -71.54693887915451,
      -33.48706811220651
     ],
     [
      -71.54521117640785,
      -33.48756174156272
     ],
     [
      -71.54347622098948,
      -33.48802924174293
     ],
     [
      -71.54173440804381,
      -33.48847050627179
     ],
     [
      -71.53998613427697,
      -33.48888543464921
     ],
     [
      -71.53467228621155,
      -33.49007587880795
     ],
     [
      -71.52937604817673,
      -33.49134237051192
     ],
     [
      -71.52409850844535,
      -33.49268464952198
     ],
     [
      -71.51957026566146,
      -33.4940915886313
     ],
     [
      -71.5150238279932,
      -33.49543857225994
     ],
     [
      -71.51045998923378,
      -33.49672536522888
     ],
     [
      -71.5070883873104,
      -33.49786539707576
     ],
     [
      -71.50527512566657,
      -33.49855616341629
     ],
     [
      -71.50389592370858,
      -33.49904041045084
     ],
     [
      -71.50289183863615,
      -33.49956182879914
     ],
     [
      -71.50187988451599,
      -33.50006780585921
     ],
     [
      -71.5008602987939,
      -33.50055822290818
     ],
     [
      -71.49983332070634,
      -33.50103296487424
     ],
     [
      -71.49879919122434,
      -33.50149192036343
     ],
     [
      -71.46935527596025,
      -33.51427109766279
     ],
     [
      -71.46382914523622,
      -33.51789762095046
     ],
     [
      -71.45916647243779,
      -33.52117876106787
     ],
     [
      -71.45605802390551,
      -33.52290567691912
     ],
     [
      -71.44681902410122,
      -33.52929526556881
     ],
     [
      -71.44034308965898,
      -33.53292178885648
     ],
     [
      -71.43611214582336,
      -33.53499408787798
     ],
     [
      -71.43309004308365,
      -33.53680734952182
     ],
     [
      -71.43067236089188,
      -33.53810253641027
     ],
     [
      -71.41659799670407,
      -33.54475116243764
     ],
     [
      -71.41288512762384,
      -33.54690980725172
     ],
     [
      -71.40848149220314,
      -33.5495001810286
     ],
     [
      -71.4033870904419,
      -33.55226324639063
     ],
     [
      -71.39820634288809,
      -33.5553716949229
     ],
     [
      -71.39432078222275,
      -33.55787572290726
     ],
     [
      -71.38888099729127,
      -33.56072513406183
     ],
     [
      -71.38559985717386,
      -33.56279743308335
     ],
     [
      -71.379641997487,
      -33.56944605911074
     ],
     [
      -71.3780014274283,
      -33.57048220862146
     ],
     [
      -71.3756700910291,
      -33.57220912447275
     ],
     [
      -71.37290702566708,
      -33.57419507770168
     ],
     [
      -71.36928050237941,
      -33.57669910568604
     ],
     [
      -71.36530859592149,
      -33.57989390001085
     ],
     [
      -71.36150938104872,
      -33.58248427378777
     ],
     [
      -71.35753747459083,
      -33.58464291860185
     ],
     [
      -71.3552061381916,
      -33.58602445128286
     ],
     [
      -71.34527637204681,
      -33.58930559140027
     ],
     [
      -71.33819601705665,
      -33.59241403993252
     ],
     [
      -71.33206546578465,
      -33.59543614267226
     ],
     [
      -71.3228264659804,
      -33.59940804913018
     ],
     [
      -71.31825013897455,
      -33.60173938552938
     ]
    ]
   }
  },
  {
   "type": "Feature",
   "properties": {
    "F_id": "300406",
    "F_system": "CFTF",
    "F_name": "Topocalma",
    "FT_name": "",
    "type": "inferred",
    "strike": "116",
    "dip": "",
    "dipdir": "NE",
    "sense": "",
    "length_km": "10.111",
    "max_z_km": "",
    "width_km": "",
    "activity": "Probable",
    "recent_act": "",
    "ass_seism": "",
    "refs": ""
   },
   "geometry": {
    "type": "LineString",
    "coordinates": [
     [
      -71.63573858368338,
      -34.38273443641722
     ],
     [
      -71.6439761121616,
      -34.37861567217811
     ],
     [
      -71.65749080732115,
      -34.37218010305451
     ],
     [
      -71.67061936833332,
      -34.3666455136082
     ],
     [
      -71.6831043724331,
      -34.36033865586709
     ],
     [
      -71.69301514888346,
      -34.35544762333313
     ],
     [
      -71.70768824648526,
      -34.34875463144459
     ],
     [
      -71.71875742537787,
      -34.34280173000525
     ],
     [
      -71.72499992742777,
      -34.33987354605402
     ],
     [
      -71.73088847317584,
      -34.33720278486771
     ]
    ]
   }
  }
 ]
}